{
  "norad_id": 56783,
  "name": "STARLINK-6357",
  "history": [
    {
      "epoch": "2026-03-28T20:44:08.748960Z",
      "apogee_km": 574.1943159540006,
      "perigee_km": 569.9116088991523,
      "latitude_deg": 3.4508297607427187e-06,
      "longitude_deg": 138.8746237858974,
      "height_km": 574.4548374532006,
      "semi_major_axis_km": 6950.189962426576,
      "eccentricity": 0.0003081,
      "inclination_deg": 69.9979,
      "raan_deg": 276.1894,
      "arg_perigee_deg": 270.6825,
      "mean_anomaly_deg": 89.3981,
      "mean_motion_rev_day": 14.98330947
    },
    {
      "epoch": "2026-03-28T20:44:08.749824Z",
      "apogee_km": 574.1941074483011,
      "perigee_km": 569.9118174048517,
      "latitude_deg": 2.002538127955639e-07,
      "longitude_deg": 138.87461899925597,
      "height_km": 574.454839937517,
      "semi_major_axis_km": 6950.189962426576,
      "eccentricity": 0.00030807,
      "inclination_deg": 69.9979,
      "raan_deg": 276.1894,
      "arg_perigee_deg": 270.6825,
      "mean_anomaly_deg": 89.3981,
      "mean_motion_rev_day": 14.98330947
    },
    {
      "epoch": "2026-03-29T06:20:57.116544Z",
      "apogee_km": 574.1883014726664,
      "perigee_km": 569.9172708452752,
      "latitude_deg": 6.248645626671728e-06,
      "longitude_deg": -6.731816484391119,
      "height_km": 574.4504730041753,
      "semi_major_axis_km": 6950.1897861589705,
      "eccentricity": 0.00030726,
      "inclination_deg": 69.9979,
      "raan_deg": 275.1793,
      "arg_perigee_deg": 270.7965,
      "mean_anomaly_deg": 89.2842,
      "mean_motion_rev_day": 14.98331004
    },
    {
      "epoch": "2026-03-30T12:47:30.464736Z",
      "apogee_km": 574.1683900946455,
      "perigee_km": 569.9439236900243,
      "latitude_deg": 1.9269834504713156e-05,
      "longitude_deg": -107.81949460295378,
      "height_km": 574.4445097317906,
      "semi_major_axis_km": 6950.193156892335,
      "eccentricity": 0.00030391,
      "inclination_deg": 69.998,
      "raan_deg": 271.9808,
      "arg_perigee_deg": 271.0577,
      "mean_anomaly_deg": 89.0234,
      "mean_motion_rev_day": 14.98329914
    },
    {
      "epoch": "2026-03-30T20:48:10.789920Z",
      "apogee_km": 574.1777777915786,
      "perigee_km": 569.9349627467636,
      "latitude_deg": -2.8258330161364387e-05,
      "longitude_deg": 130.84175862425062,
      "height_km": 574.4395207288295,
      "semi_major_axis_km": 6950.193370269171,
      "eccentricity": 0.00030523,
      "inclination_deg": 69.998,
      "raan_deg": 271.1391,
      "arg_perigee_deg": 271.1941,
      "mean_anomaly_deg": 88.8868,
      "mean_motion_rev_day": 14.98329845
    },
    {
      "epoch": "2026-03-31T20:50:11.479488Z",
      "apogee_km": 574.1726220182618,
      "perigee_km": 569.9288373905047,
      "latitude_deg": 6.991384080055341e-05,
      "longitude_deg": 126.82690054284399,
      "height_km": 574.4228062287046,
      "semi_major_axis_km": 6950.187729704383,
      "eccentricity": 0.0003053,
      "inclination_deg": 69.9981,
      "raan_deg": 268.6141,
      "arg_perigee_deg": 271.4929,
      "mean_anomaly_deg": 88.5881,
      "mean_motion_rev_day": 14.98331669
    },
    {
      "epoch": "2026-04-01T20:52:12.650304Z",
      "apogee_km": 574.1769635784531,
      "perigee_km": 569.948462073171,
      "latitude_deg": 3.393522772796944e-05,
      "longitude_deg": 122.8099830905673,
      "height_km": 574.5635615884751,
      "semi_major_axis_km": 6950.199712825812,
      "eccentricity": 0.0003042,
      "inclination_deg": 69.9981,
      "raan_deg": 266.0891,
      "arg_perigee_deg": 268.0082,
      "mean_anomaly_deg": 92.0729,
      "mean_motion_rev_day": 14.98327794
    }
  ]
}